{
  "type": "FeatureCollection",
  "name": "Division Line",
  "features": [
    {
      "type": "Feature",
      "geometry": {
        "type": "LineString",
        "coordinates": [
          [
            4.8553532,
            52.4161369
          ],
          [
            4.8639792,
            52.4140036
          ],
          [
            4.8605674,
            52.410234
          ],
          [
            4.856733,
            52.4070669
          ],
          [
            4.8509824,
            52.4024065
          ],
          [
            4.8478066,
            52.3996572
          ],
          [
            4.8457402,
            52.3979415
          ],
          [
            4.8443454,
            52.3960299
          ],
          [
            4.843043,
            52.3950223
          ],
          [
            4.836964,
            52.3922588
          ],
          [
            4.8336595,
            52.3916041
          ],
          [
            4.8337023,
            52.3900461
          ],
          [
            4.8187679,
            52.3899279
          ],
          [
            4.8187327,
            52.3892006
          ]
        ]
      },
      "properties": {
        "name": "Division Line"
      }
    }
  ]
}